SAUDISAT 5A             
1 43831U 18102A   26168.49225045  .00004349  00000+0  16139-3 0  9997
2 43831  97.3066 230.0674 0011030 128.2011 232.0224 15.28050605415720
SAUDISAT 5B             
1 43833U 18102C   26168.51104345  .00004171  00000+0  15369-3 0  9998
2 43833  97.3173 233.1560 0011702 130.2812 229.9453 15.28307147415845
GAOFEN-10R              
1 44622U 19066A   26168.55861622  .00000889  00000+0  11590-3 0  9991
2 44622  98.0498 122.1405 0006699 126.4424 233.7408 14.83061417362436
CARTOSAT-3              
1 44804U 19081A   26168.48664691  .00004039  00000+0  19425-3 0  9995
2 44804  97.4306 230.3494 0013347 147.0809 213.1260 15.19285542363518
GAOFEN-12 01            
1 44819U 19082A   26168.48524438  .00000295  00000+0  45190-4 0  9995
2 44819  97.8100 174.8568 0002264  70.2572 289.8884 14.80458709354138
CSG-1                   
1 44873U 19092A   26168.52392236  .00000292  00000+0  43180-4 0  9994
2 44873  97.8888 352.1215 0001471  89.4749 270.6632 14.82153395351522
NEMO-HD                 
1 46277U 20061F   26168.51846836  .00008955  00000+0  19438-3 0  9993
2 46277  97.1917 230.4680 0002263  81.2008 278.9498 15.44599831322033
SENTINEL-6A             
1 46984U 20086A   26168.31971127 -.00000070  00000+0 -39565-4 0  9991
2 46984  66.0395 134.7770 0007942 270.2239  89.7866 12.80929937260347
CAS500-1                
1 47932U 21022A   26168.52381934  .00005003  00000+0  23447-3 0  9990
2 47932  97.3900  63.7705 0003376 299.3663  60.7234 15.20135364290812
GAOFEN-12 02            
1 48079U 21026A   26168.49633464  .00000285  00000+0  44393-4 0  9992
2 48079  97.9921 166.6756 0003701 220.4196 139.6741 14.80296452281800
PLEIADES NEO 3          
1 48268U 21034A   26168.52327698  .00001091  00000+0  14521-3 0  9999
2 48268  97.8936 243.2853 0001408  87.8528 272.2846 14.81675804277708
PLEIADES NEO 4          
1 49070U 21073E   26168.48949909  .00000707  00000+0  96415-4 0  9990
2 49070  97.8939 243.2476 0001352  86.3946 273.7421 14.81676055261415
LANDSAT 9               
1 49260U 21088A   26168.12785191  .00000288  00000+0  74060-4 0  9995
2 49260  98.2281 238.3060 0001337  85.7741 274.3610 14.57097109250992
CSG-2                   
1 51444U 22008A   26168.49014751  .00000395  00000+0  56134-4 0  9993
2 51444  97.8879 352.0830 0001480  85.1448 274.9934 14.82157564236633
GAOFEN-12 03            
1 52912U 22069A   26168.52630499  .00001010  00000+0  14012-3 0  9991
2 52912  97.8283  56.3883 0002076 102.0072 258.1373 14.80036214214665
SWOT                    
1 54754U 22173A   26168.48843359  .00000004  00000+0  45785-5 0  9994
2 54754  77.6106  34.9036 0000245  87.3046 272.8133 14.00169664179198
GAOFEN-12 04            
1 57654U 23123A   26168.54293843  .00000768  00000+0  10776-3 0  9993
2 57654  97.9122  86.5557 0001792  82.8323 277.3093 14.80229272152680
PARS 1                  
1 59065U 24039Q   26168.50873094  .00009032  00000+0  18836-3 0  9994
2 59065  97.4824 149.4386 0011519 110.6425 249.6060 15.45729412128695
RESURS-P 4              
1 59371U 24061A   26168.52440525  .00002465  00000+0  81917-4 0  9994
2 59371  97.2755 116.4173 0002200 126.3049 233.8397 15.32132826123817
LEGION 1                
1 59625U 24081A   26168.49090903  .00002955  00000+0  15428-3 0  9992
2 59625  97.5018 246.3445 0009460  16.9029 343.2517 15.16668577117582
LEGION 2                
1 59626U 24081B   26168.45491446  .00002859  00000+0  14941-3 0  9998
2 59626  97.5019 246.4064 0010720 342.7482  17.3385 15.16647407117587
ALOS-4 (DAICHI-4)       
1 60182U 24123A   26168.56431691  .00001192  00000+0  16653-3 0  9993
2 60182  97.9250 265.7329 0001645  97.5848 262.5551 14.79467842105938
LEGION 3                
1 60452U 24146A   26168.46040530  .00002870  00000+0  16021-3 0  9998
2 60452  45.0025  29.0899 0007665 171.8802 188.2202 15.16038648102067
LEGION 4                
1 60453U 24146B   26168.33171304  .00003451  00000+0  18970-3 0  9990
2 60453  45.0009 121.6901 0013749 309.2630  50.7028 15.16031422100890
SENTINEL-2C             
1 60989U 24157A   26168.10261551  .00000094  00000+0  52317-4 0  9999
2 60989  98.5692 242.8858 0001022  81.6197 278.5102 14.30817792 92971
IONOSFERA-M 1           
1 61735U 24199A   26168.47509566  .00000043  00000+0  38686-4 0  9993
2 61735  98.7172  41.6442 0001958 109.8570 250.2819 14.22754394127741
IONOSFERA-M 2           
1 61736U 24199B   26168.50939013  .00000046  00000+0  40069-4 0  9993
2 61736  98.7171  41.5888 0001031  39.4957 320.6296 14.22757610130876
PRSC-EO1                
1 62725U 25012A   26168.52135227  .00004996  00000+0  25170-3 0  9997
2 62725  97.4224 240.9748 0004796 250.7213 109.3503 15.17612791 78244
BIOMASS                 
1 63772U 25090A   26168.51077413  .00000441  00000+0  86213-4 0  9994
2 63772  98.0740 355.8232 0001386  95.1769 264.9594 14.67537521 60734
GOSAT-GW (IBUKI GW)     
1 64694U 25141A   26168.53105728  .00000397  00000+0  78435-4 0  9995
2 64694  98.0569 105.8426 0001451  82.4589 277.6781 14.67553415 51893
IONOSFERA-M 3           
1 64876U 25155A   26168.52737546  .00000026  00000+0  31490-4 0  9999
2 64876  98.6024 130.4238 0001045 156.0610 204.0616 14.21486486 46454
