OBJECT_NAME,OBJECT_ID,EPOCH,MEAN_MOTION,ECCENTRICITY,INCLINATION,RA_OF_ASC_NODE,ARG_OF_PERICENTER,MEAN_ANOMALY,EPHEMERIS_TYPE,CLASSIFICATION_TYPE,NORAD_CAT_ID,ELEMENT_SET_NO,REV_AT_EPOCH,BSTAR,MEAN_MOTION_DOT,MEAN_MOTION_DDOT
SAUDISAT 5A,2018-102A,2026-06-17T11:48:50.438880,15.28050605,.001103,97.3066,230.0674,128.2011,232.0224,0,U,43831,999,41572,.16139E-3,.4349E-4,0
SAUDISAT 5B,2018-102C,2026-06-17T12:15:54.154080,15.28307147,.0011702,97.3173,233.1560,130.2812,229.9453,0,U,43833,999,41584,.15369E-3,.4171E-4,0
GAOFEN-10R,2019-066A,2026-06-17T13:24:24.441408,14.83061417,.0006699,98.0498,122.1405,126.4424,233.7408,0,U,44622,999,36243,.1159E-3,.889E-5,0
CARTOSAT-3,2019-081A,2026-06-17T11:40:46.293024,15.19285542,.0013347,97.4306,230.3494,147.0809,213.1260,0,U,44804,999,36351,.19425E-3,.4039E-4,0
GAOFEN-12 01,2019-082A,2026-06-17T11:38:45.114432,14.80458709,.0002264,97.8100,174.8568,70.2572,289.8884,0,U,44819,999,35413,.4519E-4,.295E-5,0
CSG-1,2019-092A,2026-06-17T12:34:26.891904,14.82153395,.0001471,97.8888,352.1215,89.4749,270.6632,0,U,44873,999,35152,.4318E-4,.292E-5,0
NEMO-HD,2020-061F,2026-06-17T12:26:35.666304,15.44599831,.0002263,97.1917,230.4680,81.2008,278.9498,0,U,46277,999,32203,.19438E-3,.8955E-4,0
SENTINEL-6A,2020-086A,2026-06-17T07:40:23.053728,12.80929937,.0007942,66.0395,134.7770,270.2239,89.7866,0,U,46984,999,26034,-.39565E-4,-.7E-6,0
CAS500-1,2021-022A,2026-06-17T12:34:17.990976,15.20135364,.0003376,97.3900,63.7705,299.3663,60.7234,0,U,47932,999,29081,.23447E-3,.5003E-4,0
GAOFEN-12 02,2021-026A,2026-06-17T11:54:43.312896,14.80296452,.0003701,97.9921,166.6756,220.4196,139.6741,0,U,48079,999,28180,.44393E-4,.285E-5,0
PLEIADES NEO 3,2021-034A,2026-06-17T12:33:31.131072,14.81675804,.0001408,97.8936,243.2853,87.8528,272.2846,0,U,48268,999,27770,.14521E-3,.1091E-4,0
PLEIADES NEO 4,2021-073E,2026-06-17T11:44:52.721376,14.81676055,.0001352,97.8939,243.2476,86.3946,273.7421,0,U,49070,999,26141,.96415E-4,.707E-5,0
LANDSAT 9,2021-088A,2026-06-17T03:04:06.405024,14.57097109,.0001337,98.2281,238.3060,85.7741,274.3610,0,U,49260,999,25099,.7406E-4,.288E-5,0
CSG-2,2022-008A,2026-06-17T11:45:48.744864,14.82157564,.000148,97.8879,352.0830,85.1448,274.9934,0,U,51444,999,23663,.56134E-4,.395E-5,0
GAOFEN-12 03,2022-069A,2026-06-17T12:37:52.751136,14.80036214,.0002076,97.8283,56.3883,102.0072,258.1373,0,U,52912,999,21466,.14012E-3,.101E-4,0
SWOT,2022-173A,2026-06-17T11:43:20.662176,14.00169664,.0000245,77.6106,34.9036,87.3046,272.8133,0,U,54754,999,17919,.45785E-5,.4E-7,0
GAOFEN-12 04,2023-123A,2026-06-17T13:01:49.880352,14.80229272,.0001792,97.9122,86.5557,82.8323,277.3093,0,U,57654,999,15268,.10776E-3,.768E-5,0
PARS 1,2024-039Q,2026-06-17T12:12:34.353216,15.45729412,.0011519,97.4824,149.4386,110.6425,249.6060,0,U,59065,999,12869,.18836E-3,.9032E-4,0
RESURS-P 4,2024-061A,2026-06-17T12:35:08.613600,15.32132826,.00022,97.2755,116.4173,126.3049,233.8397,0,U,59371,999,12381,.81917E-4,.2465E-4,0
LEGION 1,2024-081A,2026-06-17T11:46:54.540192,15.16668577,.000946,97.5018,246.3445,16.9029,343.2517,0,U,59625,999,11758,.15428E-3,.2955E-4,0
LEGION 2,2024-081B,2026-06-17T10:55:04.609344,15.16647407,.001072,97.5019,246.4064,342.7482,17.3385,0,U,59626,999,11758,.14941E-3,.2859E-4,0
ALOS-4 (DAICHI-4),2024-123A,2026-06-17T13:32:36.981024,14.79467842,.0001645,97.9250,265.7329,97.5848,262.5551,0,U,60182,999,10593,.16653E-3,.1192E-4,0
LEGION 3,2024-146A,2026-06-17T11:02:59.017920,15.16038648,.0007665,45.0025,29.0899,171.8802,188.2202,0,U,60452,999,10206,.16021E-3,.287E-4,0
LEGION 4,2024-146B,2026-06-17T07:57:40.006656,15.16031422,.0013749,45.0009,121.6901,309.2630,50.7028,0,U,60453,999,10089,.1897E-3,.3451E-4,0
SENTINEL-2C,2024-157A,2026-06-17T02:27:45.980064,14.30817792,.0001022,98.5692,242.8858,81.6197,278.5102,0,U,60989,999,9297,.52317E-4,.94E-6,0
IONOSFERA-M 1,2024-199A,2026-06-17T11:24:08.265024,14.22754394,.0001958,98.7172,41.6442,109.8570,250.2819,0,U,61735,999,12774,.38686E-4,.43E-6,0
IONOSFERA-M 2,2024-199B,2026-06-17T12:13:31.307232,14.22757610,.0001031,98.7171,41.5888,39.4957,320.6296,0,U,61736,999,13087,.40069E-4,.46E-6,0
PRSC-EO1,2025-012A,2026-06-17T12:30:44.836128,15.17612791,.0004796,97.4224,240.9748,250.7213,109.3503,0,U,62725,999,7824,.2517E-3,.4996E-4,0
BIOMASS,2025-090A,2026-06-17T12:15:30.884832,14.67537521,.0001386,98.0740,355.8232,95.1769,264.9594,0,U,63772,999,6073,.86213E-4,.441E-5,0
GOSAT-GW (IBUKI GW),2025-141A,2026-06-17T12:44:43.348992,14.67553415,.0001451,98.0569,105.8426,82.4589,277.6781,0,U,64694,999,5189,.78435E-4,.397E-5,0
IONOSFERA-M 3,2025-155A,2026-06-17T12:39:25.239744,14.21486486,.0001045,98.6024,130.4238,156.0610,204.0616,0,U,64876,999,4645,.3149E-4,.26E-6,0
